LUR-1                   
1 60506U 24149AQ  26068.79566301  .00009121  00000+0  32985-3 0  9998
2 60506  97.3790 148.4255 0002777 309.1571  50.9421 15.28658648 86785
STARLINK-35564          
1 67420U 26005S   26068.47993505  .00025017  00000+0  91526-3 0  9996
2 67420  42.9974 239.2264 0000741 224.6993 135.3799 15.27590548  8664
